{"type": "FeatureCollection", "features": [ {"type": "Feature", "properties": {"norad_id": 31493, "name": "FENGYUN 1C DEB", "group": "fengyun-1c-debris", "lat": -12.085871256611219, "lon": 117.78008698499461, "alt_km": 851.5078393456897, "timestamp": "2025-12-19T10:50:01.483780+00:00", "meta": {"OBJECT_NAME": "FENGYUN 1C DEB", "OBJECT_ID": "1999-025BWG", "EPOCH": "2025-12-12T02:05:14.361792", "MEAN_MOTION": 13.92967952, "ECCENTRICITY": 0.01169776, "INCLINATION": 100.136, "RA_OF_ASC_NODE": 291.9196, "ARG_OF_PERICENTER": 177.3499, "MEAN_ANOMALY": 182.8302, "EPHEMERIS_TYPE": 0, "CLASSIFICATION_TYPE": "U", "NORAD_CAT_ID": 31493, "ELEMENT_SET_NO": 999, "REV_AT_EPOCH": 59857, "BSTAR": 0.0010865995, "MEAN_MOTION_DOT": 1.441e-05, "MEAN_MOTION_DDOT": 0}, "tle": {"line1": "1 31493U 99025BWG 25346.08697178  .00001441  00000+0  10866-2 0  9993", "line2": "2 31493 100.1360 291.9196 0116977 177.3499 182.8302 13.92967952598572"}}, "geometry": {"type": "Point", "coordinates": [117.78008698499461, -12.085871256611219]}}, {"type": "Feature", "properties": {"norad_id": 31495, "name": "FENGYUN 1C DEB", "group": "fengyun-1c-debris", "lat": 6.064330875261768, "lon": 47.91449905560074, "alt_km": 778.8117392258846, "timestamp": "2025-12-19T10:50:01.483790+00:00", "meta": {"OBJECT_NAME": "FENGYUN 1C DEB", "OBJECT_ID": "1999-025BWJ", "EPOCH": "2025-12-18T08:49:19.290432", "MEAN_MOTION": 14.29243589, "ECCENTRICITY": 0.00254408, "INCLINATION": 99.1207, "RA_OF_ASC_NODE": 225.8031, "ARG_OF_PERICENTER": 160.5475, "MEAN_ANOMALY": 199.6682, "EPHEMERIS_TYPE": 0, "CLASSIFICATION_TYPE": "U", "NORAD_CAT_ID": 31495, "ELEMENT_SET_NO": 999, "REV_AT_EPOCH": 63471, "BSTAR": 0.0010745518, "MEAN_MOTION_DOT": 2.694e-05, "MEAN_MOTION_DDOT": 0}, "tle": {"line1": "1 31495U 99025BWJ 25352.36758438  .00002694  00000+0  10746-2 0  9998", "line2": "2 31495  99.1207 225.8031 0025440 160.5475 199.6682 14.29243589634715"}}, "geometry": {"type": "Point", "coordinates": [47.91449905560074, 6.064330875261768]}}, {"type": "Feature", "properties": {"norad_id": 31497, "name": "FENGYUN 1C DEB", "group": "fengyun-1c-debris", "lat": -27.242388429031305, "lon": 152.5085339740367, "alt_km": 816.7366428808591, "timestamp": "2025-12-19T10:50:01.483800+00:00", "meta": {"OBJECT_NAME": "FENGYUN 1C DEB", "OBJECT_ID": "1999-025BWL", "EPOCH": "2025-12-14T05:00:51.272928", "MEAN_MOTION": 14.39228857, "ECCENTRICITY": 0.01677218, "INCLINATION": 98.371, "RA_OF_ASC_NODE": 331.7359, "ARG_OF_PERICENTER": 338.738, "MEAN_ANOMALY": 83.6034, "EPHEMERIS_TYPE": 0, "CLASSIFICATION_TYPE": "U", "NORAD_CAT_ID": 31497, "ELEMENT_SET_NO": 999, "REV_AT_EPOCH": 97576, "BSTAR": 0.00037898775, "MEAN_MOTION_DOT": 1.336e-05, "MEAN_MOTION_DDOT": 0}, "tle": {"line1": "1 31497U 99025BWL 25348.20892677  .00001336  00000+0  37899-3 0  9993", "line2": "2 31497  98.3710 331.7359 0167721 338.7380  83.6034 14.39228857975768"}}, "geometry": {"type": "Point", "coordinates": [152.5085339740367, -27.242388429031305]}}, {"type": "Feature", "properties": {"norad_id": 31498, "name": "FENGYUN 1C DEB", "group": "fengyun-1c-debris", "lat": 64.41319633718699, "lon": -54.0667776796599, "alt_km": 887.3535350143338, "timestamp": "2025-12-19T10:50:01.483810+00:00", "meta": {"OBJECT_NAME": "FENGYUN 1C DEB", "OBJECT_ID": "1999-025BWM", "EPOCH": "2025-12-15T21:03:52.588800", "MEAN_MOTION": 13.77007201, "ECCENTRICITY": 0.02188956, "INCLINATION": 98.4855, "RA_OF_ASC_NODE": 320.9059, "ARG_OF_PERICENTER": 136.4189, "MEAN_ANOMALY": 225.449, "EPHEMERIS_TYPE": 0, "CLASSIFICATION_TYPE": "U", "NORAD_CAT_ID": 31498, "ELEMENT_SET_NO": 999, "REV_AT_EPOCH": 92777, "BSTAR": 0.0012663816, "MEAN_MOTION_DOT": 1.456e-05, "MEAN_MOTION_DDOT": 0}, "tle": {"line1": "1 31498U 99025BWM 25349.87769200  .00001456  00000+0  12664-2 0  9998", "line2": "2 31498  98.4855 320.9059 0218895 136.4189 225.4490 13.77007201927775"}}, "geometry": {"type": "Point", "coordinates": [-54.0667776796599, 64.41319633718699]}}, {"type": "Feature", "properties": {"norad_id": 31503, "name": "FENGYUN 1C DEB", "group": "fengyun-1c-debris", "lat": 4.292553919808295, "lon": -140.24145982082214, "alt_km": 852.6048440122986, "timestamp": "2025-12-19T10:50:01.483820+00:00", "meta": {"OBJECT_NAME": "FENGYUN 1C DEB", "OBJECT_ID": "1999-025BWS", "EPOCH": "2025-12-07T08:28:57.805248", "MEAN_MOTION": 14.22556904, "ECCENTRICITY": 0.00490467, "INCLINATION": 100.0987, "RA_OF_ASC_NODE": 206.6798, "ARG_OF_PERICENTER": 202.0276, "MEAN_ANOMALY": 157.879, "EPHEMERIS_TYPE": 0, "CLASSIFICATION_TYPE": "U", "NORAD_CAT_ID": 31503, "ELEMENT_SET_NO": 999, "REV_AT_EPOCH": 64170, "BSTAR": 0.0017221681, "MEAN_MOTION_DOT": 3.84e-05, "MEAN_MOTION_DDOT": 0}, "tle": {"line1": "1 31503U 99025BWS 25341.35344682  .00003840  00000+0  17222-2 0  9997", "line2": "2 31503 100.0987 206.6798 0049046 202.0276 157.8790 14.22556904641702"}}, "geometry": {"type": "Point", "coordinates": [-140.24145982082214, 4.292553919808295]}}, {"type": "Feature", "properties": {"norad_id": 31507, "name": "FENGYUN 1C DEB", "group": "fengyun-1c-debris", "lat": 70.64628017119203, "lon": 1.3251127685668191, "alt_km": 630.8001259343946, "timestamp": "2025-12-19T10:50:01.483830+00:00", "meta": {"OBJECT_NAME": "FENGYUN 1C DEB", "OBJECT_ID": "1999-025BWW", "EPOCH": "2025-12-18T21:49:55.070688", "MEAN_MOTION": 14.52194337, "ECCENTRICITY": 0.01176672, "INCLINATION": 98.193, "RA_OF_ASC_NODE": 25.012, "ARG_OF_PERICENTER": 59.3923, "MEAN_ANOMALY": 62.2092, "EPHEMERIS_TYPE": 0, "CLASSIFICATION_TYPE": "U", "NORAD_CAT_ID": 31507, "ELEMENT_SET_NO": 999, "REV_AT_EPOCH": 98110, "BSTAR": 0.00033723886, "MEAN_MOTION_DOT": 1.449e-05, "MEAN_MOTION_DDOT": 0}, "tle": {"line1": "1 31507U 99025BWW 25352.90966517  .00001449  00000+0  33724-3 0  9990", "line2": "2 31507  98.1930  25.0120 0117667  59.3923  62.2092 14.52194337981106"}}, "geometry": {"type": "Point", "coordinates": [1.3251127685668191, 70.64628017119203]}}, {"type": "Feature", "properties": {"norad_id": 31508, "name": "FENGYUN 1C DEB", "group": "fengyun-1c-debris", "lat": 3.4271199634529266, "lon": 101.79113066677553, "alt_km": 675.0221405702423, "timestamp": "2025-12-19T10:50:01.483841+00:00", "meta": {"OBJECT_NAME": "FENGYUN 1C DEB", "OBJECT_ID": "1999-025BWX", "EPOCH": "2025-12-17T06:16:45.647616", "MEAN_MOTION": 14.62612709, "ECCENTRICITY": 0.00342454, "INCLINATION": 98.6295, "RA_OF_ASC_NODE": 100.0246, "ARG_OF_PERICENTER": 310.1884, "MEAN_ANOMALY": 49.632, "EPHEMERIS_TYPE": 0, "CLASSIFICATION_TYPE": "U", "NORAD_CAT_ID": 31508, "ELEMENT_SET_NO": 999, "REV_AT_EPOCH": 96990, "BSTAR": 0.0021435442, "MEAN_MOTION_DOT": 0.00010947, "MEAN_MOTION_DDOT": 0}, "tle": {"line1": "1 31508U 99025BWX 25351.26163944  .00010947  00000+0  21435-2 0  9990", "line2": "2 31508  98.6295 100.0246 0034245 310.1884  49.6320 14.62612709969909"}}, "geometry": {"type": "Point", "coordinates": [101.79113066677553, 3.4271199634529266]}}, {"type": "Feature", "properties": {"norad_id": 31509, "name": "FENGYUN 1C DEB", "group": "fengyun-1c-debris", "lat": -37.097072376887354, "lon": -74.34373017904973, "alt_km": 775.1227960117394, "timestamp": "2025-12-19T10:50:01.483851+00:00", "meta": {"OBJECT_NAME": "FENGYUN 1C DEB", "OBJECT_ID": "1999-025BWY", "EPOCH": "2025-12-17T14:45:21.848544", "MEAN_MOTION": 13.94923139, "ECCENTRICITY": 0.02044606, "INCLINATION": 99.0216, "RA_OF_ASC_NODE": 110.7596, "ARG_OF_PERICENTER": 205.2426, "MEAN_ANOMALY": 153.8635, "EPHEMERIS_TYPE": 0, "CLASSIFICATION_TYPE": "U", "NORAD_CAT_ID": 31509, "ELEMENT_SET_NO": 999, "REV_AT_EPOCH": 94030, "BSTAR": 0.0018409635, "MEAN_MOTION_DOT": 2.903e-05, "MEAN_MOTION_DDOT": 0}, "tle": {"line1": "1 31509U 99025BWY 25351.61483621  .00002903  00000+0  18410-2 0  9999", "line2": "2 31509  99.0216 110.7596 0204460 205.2426 153.8635 13.94923139940304"}}, "geometry": {"type": "Point", "coordinates": [-74.34373017904973, -37.097072376887354]}}, {"type": "Feature", "properties": {"norad_id": 31510, "name": "FENGYUN 1C DEB", "group": "fengyun-1c-debris", "lat": -15.668047148095035, "lon": -5.104162656880432, "alt_km": 792.2590092026758, "timestamp": "2025-12-19T10:50:01.483861+00:00", "meta": {"OBJECT_NAME": "FENGYUN 1C DEB", "OBJECT_ID": "1999-025BWZ", "EPOCH": "2025-12-18T06:21:23.739840", "MEAN_MOTION": 14.24575342, "ECCENTRICITY": 0.00368049, "INCLINATION": 98.5532, "RA_OF_ASC_NODE": 351.3211, "ARG_OF_PERICENTER": 315.3597, "MEAN_ANOMALY": 66.9599, "EPHEMERIS_TYPE": 0, "CLASSIFICATION_TYPE": "U", "NORAD_CAT_ID": 31510, "ELEMENT_SET_NO": 999, "REV_AT_EPOCH": 96566, "BSTAR": 0.00043372753, "MEAN_MOTION_DOT": 9.71e-06, "MEAN_MOTION_DDOT": 0}, "tle": {"line1": "1 31510U 99025BWZ 25352.26485810  .00000971  00000+0  43373-3 0  9995", "line2": "2 31510  98.5532 351.3211 0036804 315.3597  66.9599 14.24575342965667"}}, "geometry": {"type": "Point", "coordinates": [-5.104162656880432, -15.668047148095035]}}, {"type": "Feature", "properties": {"norad_id": 31511, "name": "FENGYUN 1C DEB", "group": "fengyun-1c-debris", "lat": 59.61511889636787, "lon": 146.55143983880723, "alt_km": 857.5875702541007, "timestamp": "2025-12-19T10:50:01.483871+00:00", "meta": {"OBJECT_NAME": "FENGYUN 1C DEB", "OBJECT_ID": "1999-025BXA", "EPOCH": "2025-12-16T16:57:53.904960", "MEAN_MOTION": 14.28101232, "ECCENTRICITY": 0.01095882, "INCLINATION": 99.069, "RA_OF_ASC_NODE": 159.5093, "ARG_OF_PERICENTER": 215.4224, "MEAN_ANOMALY": 143.9644, "EPHEMERIS_TYPE": 0, "CLASSIFICATION_TYPE": "U", "NORAD_CAT_ID": 31511, "ELEMENT_SET_NO": 999, "REV_AT_EPOCH": 95857, "BSTAR": 0.0010389411, "MEAN_MOTION_DOT": 2.707e-05, "MEAN_MOTION_DDOT": 0}, "tle": {"line1": "1 31511U 99025BXA 25350.70687390  .00002707  00000+0  10389-2 0  9999", "line2": "2 31511  99.0690 159.5093 0109588 215.4224 143.9644 14.28101232958578"}}, "geometry": {"type": "Point", "coordinates": [146.55143983880723, 59.61511889636787]}}]}